{
  "norad_id": 67941,
  "name": "STARLINK-36927",
  "history": [
    {
      "epoch": "2026-03-28T06:50:08.549952Z",
      "apogee_km": 415.75990571699367,
      "perigee_km": 414.06707753448154,
      "latitude_deg": 2.6190765492843397e-05,
      "longitude_deg": 158.4164348771717,
      "height_km": 414.8665628950485,
      "semi_major_axis_km": 6793.050491625738,
      "eccentricity": 0.0001246,
      "inclination_deg": 43.0007,
      "raan_deg": 86.6595,
      "arg_perigee_deg": 257.8086,
      "mean_anomaly_deg": 102.2635,
      "mean_motion_rev_day": 15.50620417
    },
    {
      "epoch": "2026-03-29T01:23:13.862112Z",
      "apogee_km": 416.3456406728301,
      "perigee_km": 413.3879668166792,
      "latitude_deg": 1.0864701955103347e-05,
      "longitude_deg": -125.13729774601994,
      "height_km": 414.5878582380058,
      "semi_major_axis_km": 6793.003803744754,
      "eccentricity": 0.0002177,
      "inclination_deg": 43.0008,
      "raan_deg": 82.1398,
      "arg_perigee_deg": 272.0955,
      "mean_anomaly_deg": 87.9656,
      "mean_motion_rev_day": 15.50636403
    },
    {
      "epoch": "2026-03-30T00:34:36.012288Z",
      "apogee_km": 416.4631493858733,
      "perigee_km": 413.65212544490987,
      "latitude_deg": 9.039101692339128e-06,
      "longitude_deg": -119.58714994084822,
      "height_km": 414.6115227877294,
      "semi_major_axis_km": 6793.194637415391,
      "eccentricity": 0.0002069,
      "inclination_deg": 42.9966,
      "raan_deg": 76.4846,
      "arg_perigee_deg": 279.0344,
      "mean_anomaly_deg": 81.0282,
      "mean_motion_rev_day": 15.50571063
    },
    {
      "epoch": "2026-03-30T00:34:36.013152Z",
      "apogee_km": 416.4634211136581,
      "perigee_km": 413.65185371712505,
      "latitude_deg": 1.2145540997137874e-05,
      "longitude_deg": -119.58715023763065,
      "height_km": 414.61148012538615,
      "semi_major_axis_km": 6793.194637415391,
      "eccentricity": 0.00020694,
      "inclination_deg": 42.9966,
      "raan_deg": 76.4846,
      "arg_perigee_deg": 279.0344,
      "mean_anomaly_deg": 81.0282,
      "mean_motion_rev_day": 15.50571063
    },
    {
      "epoch": "2026-03-30T22:13:10.567200Z",
      "apogee_km": 415.60691849169507,
      "perigee_km": 413.4020270696319,
      "latitude_deg": -4.535144526741005e-05,
      "longitude_deg": -90.3905293336607,
      "height_km": 414.1389333697478,
      "semi_major_axis_km": 6792.641472780663,
      "eccentricity": 0.0001623,
      "inclination_deg": 42.9988,
      "raan_deg": 71.2141,
      "arg_perigee_deg": 277.2966,
      "mean_anomaly_deg": 82.7709,
      "mean_motion_rev_day": 15.50760475
    },
    {
      "epoch": "2026-04-02T20:00:01.999008Z",
      "apogee_km": 454.6476865524628,
      "perigee_km": 452.4506162861662,
      "latitude_deg": -16.17118917998012,
      "longitude_deg": -94.80748148082465,
      "height_km": 456.82180202359444,
      "semi_major_axis_km": 6831.686151419314,
      "eccentricity": 0.0001608,
      "inclination_deg": 42.9999,
      "raan_deg": 54.3909,
      "arg_perigee_deg": 244.6642,
      "mean_anomaly_deg": 91.4334,
      "mean_motion_rev_day": 15.37485052
    },
    {
      "epoch": "2026-04-02T22:00:01.999584Z",
      "apogee_km": 455.56171900655954,
      "perigee_km": 453.46792118280973,
      "latitude_deg": 41.967930963277944,
      "longitude_deg": -33.78928254743656,
      "height_km": 458.44131716864075,
      "semi_major_axis_km": 6832.651820094684,
      "eccentricity": 0.00015322,
      "inclination_deg": 43.0,
      "raan_deg": 53.9143,
      "arg_perigee_deg": 262.7478,
      "mean_anomaly_deg": 175.0881,
      "mean_motion_rev_day": 15.37159121
    },
    {
      "epoch": "2026-04-03T20:00:01.999008Z",
      "apogee_km": 466.917882853445,
      "perigee_km": 465.0056416592706,
      "latitude_deg": 39.96596419074064,
      "longitude_deg": 33.15744485390722,
      "height_km": 469.2881523636126,
      "semi_major_axis_km": 6844.098762256357,
      "eccentricity": 0.0001397,
      "inclination_deg": 43.0004,
      "raan_deg": 48.6763,
      "arg_perigee_deg": 265.6857,
      "mean_anomaly_deg": 204.4555,
      "mean_motion_rev_day": 15.33304323
    },
    {
      "epoch": "2026-04-04T20:00:01.999008Z",
      "apogee_km": 481.8406709754554,
      "perigee_km": 479.5868526151289,
      "latitude_deg": -31.320319373894375,
      "longitude_deg": 130.29809943924278,
      "height_km": 488.2213283391429,
      "semi_major_axis_km": 6858.850761795292,
      "eccentricity": 0.0001643,
      "inclination_deg": 43.001,
      "raan_deg": 42.9949,
      "arg_perigee_deg": 253.8968,
      "mean_anomaly_deg": 335.4292,
      "mean_motion_rev_day": 15.28360243
    }
  ]
}